{
  "type": "FeatureCollection",
  "features": [
    {
      "type": "Feature",
      "properties": {
        "norad_id": 34588,
        "name": "COSMOS 2251 DEB",
        "group": "cosmos-2251-debris",
        "lat": 59.609764859109845,
        "lon": -59.70837148889932,
        "alt_km": 748.0632662833641,
        "timestamp": "2025-12-11T05:00:26.703063+00:00",
        "meta_object_name": "COSMOS 2251 DEB",
        "meta_object_id": "1993-036WA",
        "meta_epoch": "2025-12-10T18:51:50.458752",
        "meta_mean_motion": 14.42012293,
        "meta_eccentricity": 0.00191354,
        "meta_inclination": 74.0438,
        "meta_ra_of_asc_node": 271.8755,
        "meta_arg_of_pericenter": 324.7399,
        "meta_mean_anomaly": 65.734,
        "meta_ephemeris_type": 0,
        "meta_classification_type": "U",
        "meta_norad_cat_id": 34588,
        "meta_element_set_no": 999,
        "meta_rev_at_epoch": 87922,
        "meta_bstar": 0.00078721847,
        "meta_mean_motion_dot": 2.563e-05,
        "meta_mean_motion_ddot": 0,
        "tle_line1": "1 34588U 93036WA  25344.78600068  .00002563  00000+0  78722-3 0  9996",
        "tle_line2": "2 34588  74.0438 271.8755 0019135 324.7399  65.7340 14.42012293879228"
      },
      "geometry": {
        "type": "Point",
        "coordinates": [
          -59.70837148889932,
          59.609764859109845
        ]
      }
    },
    {
      "type": "Feature",
      "properties": {
        "norad_id": 34589,
        "name": "COSMOS 2251 DEB",
        "group": "cosmos-2251-debris",
        "lat": -32.3066851040016,
        "lon": -110.85321485627391,
        "alt_km": 1104.2639867963271,
        "timestamp": "2025-12-11T05:00:26.703072+00:00",
        "meta_object_name": "COSMOS 2251 DEB",
        "meta_object_id": "1993-036WB",
        "meta_epoch": "2025-12-09T12:13:17.410656",
        "meta_mean_motion": 13.8604857,
        "meta_eccentricity": 0.02517935,
        "meta_inclination": 73.9254,
        "meta_ra_of_asc_node": 61.5361,
        "meta_arg_of_pericenter": 5.5277,
        "meta_mean_anomaly": 13.2328,
        "meta_ephemeris_type": 0,
        "meta_classification_type": "U",
        "meta_norad_cat_id": 34589,
        "meta_element_set_no": 999,
        "meta_rev_at_epoch": 84667,
        "meta_bstar": 0.00037001793,
        "meta_mean_motion_dot": 5.22e-06,
        "meta_mean_motion_ddot": 0,
        "tle_line1": "1 34589U 93036WB  25343.50922929  .00000522  00000+0  37002-3 0  9998",
        "tle_line2": "2 34589  73.9254  61.5361 0251793   5.5277  13.2328 13.86048570846678"
      },
      "geometry": {
        "type": "Point",
        "coordinates": [
          -110.85321485627391,
          -32.3066851040016
        ]
      }
    },
    {
      "type": "Feature",
      "properties": {
        "norad_id": 34590,
        "name": "COSMOS 2251 DEB",
        "group": "cosmos-2251-debris",
        "lat": -1.8944265437851424,
        "lon": 145.989860357216,
        "alt_km": 709.3942311250403,
        "timestamp": "2025-12-11T05:00:26.703082+00:00",
        "meta_object_name": "COSMOS 2251 DEB",
        "meta_object_id": "1993-036WC",
        "meta_epoch": "2025-12-10T08:56:51.819072",
        "meta_mean_motion": 14.54821545,
        "meta_eccentricity": 0.00679607,
        "meta_inclination": 74.0436,
        "meta_ra_of_asc_node": 327.0281,
        "meta_arg_of_pericenter": 97.3317,
        "meta_mean_anomaly": 28.045,
        "meta_ephemeris_type": 0,
        "meta_classification_type": "U",
        "meta_norad_cat_id": 34590,
        "meta_element_set_no": 999,
        "meta_rev_at_epoch": 89086,
        "meta_bstar": 0.00020824957,
        "meta_mean_motion_dot": 8.92e-06,
        "meta_mean_motion_ddot": 0,
        "tle_line1": "1 34590U 93036WC  25344.37282198  .00000892  00000+0  20825-3 0  9998",
        "tle_line2": "2 34590  74.0436 327.0281 0067960  97.3317  28.0450 14.54821545890867"
      },
      "geometry": {
        "type": "Point",
        "coordinates": [
          145.989860357216,
          -1.8944265437851424
        ]
      }
    },
    {
      "type": "Feature",
      "properties": {
        "norad_id": 34609,
        "name": "COSMOS 2251 DEB",
        "group": "cosmos-2251-debris",
        "lat": 44.79829939424192,
        "lon": -87.3333313813494,
        "alt_km": 915.0186514890574,
        "timestamp": "2025-12-11T05:00:26.703092+00:00",
        "meta_object_name": "COSMOS 2251 DEB",
        "meta_object_id": "1993-036WE",
        "meta_epoch": "2025-12-10T18:57:46.469088",
        "meta_mean_motion": 14.21781608,
        "meta_eccentricity": 0.01449667,
        "meta_inclination": 73.733,
        "meta_ra_of_asc_node": 110.2852,
        "meta_arg_of_pericenter": 330.0859,
        "meta_mean_anomaly": 180.8031,
        "meta_ephemeris_type": 0,
        "meta_classification_type": "U",
        "meta_norad_cat_id": 34609,
        "meta_element_set_no": 999,
        "meta_rev_at_epoch": 86604,
        "meta_bstar": 0.0012300062,
        "meta_mean_motion_dot": 2.985e-05,
        "meta_mean_motion_ddot": 0,
        "tle_line1": "1 34609U 93036WE  25344.79012117  .00002985  00000+0  12300-2 0  9990",
        "tle_line2": "2 34609  73.7330 110.2852 0144966 330.0859 180.8031 14.21781608866047"
      },
      "geometry": {
        "type": "Point",
        "coordinates": [
          -87.3333313813494,
          44.79829939424192
        ]
      }
    },
    {
      "type": "Feature",
      "properties": {
        "norad_id": 34610,
        "name": "COSMOS 2251 DEB",
        "group": "cosmos-2251-debris",
        "lat": 17.572219630102364,
        "lon": -89.78780766293944,
        "alt_km": 744.7541645624106,
        "timestamp": "2025-12-11T05:00:26.703120+00:00",
        "meta_object_name": "COSMOS 2251 DEB",
        "meta_object_id": "1993-036WF",
        "meta_epoch": "2025-12-10T05:02:03.691680",
        "meta_mean_motion": 14.07027764,
        "meta_eccentricity": 0.018028,
        "meta_inclination": 74.0193,
        "meta_ra_of_asc_node": 266.7563,
        "meta_arg_of_pericenter": 37.9263,
        "meta_mean_anomaly": 323.4412,
        "meta_ephemeris_type": 0,
        "meta_classification_type": "U",
        "meta_norad_cat_id": 34610,
        "meta_element_set_no": 999,
        "meta_rev_at_epoch": 85524,
        "meta_bstar": 0.0030988,
        "meta_mean_motion_dot": 5.981e-05,
        "meta_mean_motion_ddot": 0,
        "tle_line1": "1 34610U 93036WF  25344.20976495  .00005981  00000+0  30988-2 0  9997",
        "tle_line2": "2 34610  74.0193 266.7563 0180280  37.9263 323.4412 14.07027764855245"
      },
      "geometry": {
        "type": "Point",
        "coordinates": [
          -89.78780766293944,
          17.572219630102364
        ]
      }
    },
    {
      "type": "Feature",
      "properties": {
        "norad_id": 34611,
        "name": "COSMOS 2251 DEB",
        "group": "cosmos-2251-debris",
        "lat": 74.040916542723,
        "lon": -167.04511351573134,
        "alt_km": 646.3923679083027,
        "timestamp": "2025-12-11T05:00:26.703132+00:00",
        "meta_object_name": "COSMOS 2251 DEB",
        "meta_object_id": "1993-036WG",
        "meta_epoch": "2025-12-10T10:56:12.879168",
        "meta_mean_motion": 14.69433601,
        "meta_eccentricity": 0.00229616,
        "meta_inclination": 74.0532,
        "meta_ra_of_asc_node": 105.3859,
        "meta_arg_of_pericenter": 147.7445,
        "meta_mean_anomaly": 280.8165,
        "meta_ephemeris_type": 0,
        "meta_classification_type": "U",
        "meta_norad_cat_id": 34611,
        "meta_element_set_no": 999,
        "meta_rev_at_epoch": 88357,
        "meta_bstar": 0.0026990763,
        "meta_mean_motion_dot": 0.00016052,
        "meta_mean_motion_ddot": 0,
        "tle_line1": "1 34611U 93036WG  25344.45570462  .00016052  00000+0  26991-2 0  9999",
        "tle_line2": "2 34611  74.0532 105.3859 0022961 147.7445 280.8165 14.69433601883579"
      },
      "geometry": {
        "type": "Point",
        "coordinates": [
          -167.04511351573134,
          74.040916542723
        ]
      }
    },
    {
      "type": "Feature",
      "properties": {
        "norad_id": 34613,
        "name": "COSMOS 2251 DEB",
        "group": "cosmos-2251-debris",
        "lat": 49.97197763988734,
        "lon": -58.64149243002415,
        "alt_km": 759.4796954212452,
        "timestamp": "2025-12-11T05:00:26.703143+00:00",
        "meta_object_name": "COSMOS 2251 DEB",
        "meta_object_id": "1993-036WJ",
        "meta_epoch": "2025-12-09T12:55:21.253152",
        "meta_mean_motion": 14.26403229,
        "meta_eccentricity": 0.0110129,
        "meta_inclination": 73.9644,
        "meta_ra_of_asc_node": 284.366,
        "meta_arg_of_pericenter": 117.028,
        "meta_mean_anomaly": 3.7338,
        "meta_ephemeris_type": 0,
        "meta_classification_type": "U",
        "meta_norad_cat_id": 34613,
        "meta_element_set_no": 999,
        "meta_rev_at_epoch": 86417,
        "meta_bstar": 0.0019073,
        "meta_mean_motion_dot": 4.868e-05,
        "meta_mean_motion_ddot": 0,
        "tle_line1": "1 34613U 93036WJ  25343.53844043  .00004868  00000+0  19073-2 0  9993",
        "tle_line2": "2 34613  73.9644 284.3660 0110129 117.0280   3.7338 14.26403229864177"
      },
      "geometry": {
        "type": "Point",
        "coordinates": [
          -58.64149243002415,
          49.97197763988734
        ]
      }
    }
  ]
}